{"type": "FeatureCollection", "features": [{"type": "Feature", "properties": {"norad_id": 28054, "name": "DMSP 5D-3 F16 (USA 172)", "group": "weather", "lat": 37.58611432663271, "lon": -159.76295703823135, "alt_km": 845.4104830734996, "timestamp": "2025-12-21T16:47:54.371391+00:00", "meta": {"OBJECT_NAME": "DMSP 5D-3 F16 (USA 172)", "OBJECT_ID": "2003-048A", "EPOCH": "2025-12-21T11:32:20.019264", "MEAN_MOTION": 14.14427141, "ECCENTRICITY": 0.0006274, "INCLINATION": 99.0038, "RA_OF_ASC_NODE": 13.0063, "ARG_OF_PERICENTER": 292.9776, "MEAN_ANOMALY": 173.5663, "EPHEMERIS_TYPE": 0, "CLASSIFICATION_TYPE": "U", "NORAD_CAT_ID": 28054, "ELEMENT_SET_NO": 999, "REV_AT_EPOCH": 14436, "BSTAR": 7.2947e-05, "MEAN_MOTION_DOT": 9.4e-07, "MEAN_MOTION_DDOT": 0}, "tle": {"line1": "1 28054U 03048A   25355.48078726  .00000094  00000+0  72947-4 0  9991", "line2": "2 28054  99.0038  13.0063 0006274 292.9776 173.5663 14.14427141144362"}}, "geometry": {"type": "Point", "coordinates": [-159.76295703823135, 37.58611432663271]}}, {"type": "Feature", "properties": {"norad_id": 28912, "name": "METEOSAT-9 (MSG-2)", "group": "weather", "lat": -4.182806854247158, "lon": 28.169840374804004, "alt_km": 35500.22911630792, "timestamp": "2025-12-21T16:47:54.371446+00:00", "meta": {"OBJECT_NAME": "METEOSAT-9 (MSG-2)", "OBJECT_ID": "2005-049B", "EPOCH": "2025-12-20T18:34:58.766592", "MEAN_MOTION": 1.00265537, "ECCENTRICITY": 0.01042854, "INCLINATION": 8.9429, "RA_OF_ASC_NODE": 55.8777, "ARG_OF_PERICENTER": 282.8799, "MEAN_ANOMALY": 74.1046, "EPHEMERIS_TYPE": 0, "CLASSIFICATION_TYPE": "U", "NORAD_CAT_ID": 28912, "ELEMENT_SET_NO": 999, "REV_AT_EPOCH": 520, "BSTAR": 0, "MEAN_MOTION_DOT": 1.08e-06, "MEAN_MOTION_DDOT": 0}, "tle": {"line1": "1 28912U 05049B   25354.77429128  .00000108  00000+0  00000+0 0  9996", "line2": "2 28912   8.9429  55.8777 0104285 282.8799  74.1046  1.00265537  5208"}}, "geometry": {"type": "Point", "coordinates": [28.169840374804004, -4.182806854247158]}}, {"type": "Feature", "properties": {"norad_id": 29522, "name": "DMSP 5D-3 F17 (USA 191)", "group": "weather", "lat": 78.26290686684162, "lon": -131.33771250882148, "alt_km": 836.4658012917362, "timestamp": "2025-12-21T16:47:54.371469+00:00", "meta": {"OBJECT_NAME": "DMSP 5D-3 F17 (USA 191)", "OBJECT_ID": "2006-050A", "EPOCH": "2025-12-21T11:14:44.016864", "MEAN_MOTION": 14.14923282, "ECCENTRICITY": 0.000977, "INCLINATION": 98.739, "RA_OF_ASC_NODE": 0.6759, "ARG_OF_PERICENTER": 198.6011, "MEAN_ANOMALY": 161.4806, "EPHEMERIS_TYPE": 0, "CLASSIFICATION_TYPE": "U", "NORAD_CAT_ID": 29522, "ELEMENT_SET_NO": 999, "REV_AT_EPOCH": 98728, "BSTAR": 8.9762e-05, "MEAN_MOTION_DOT": 1.3e-06, "MEAN_MOTION_DDOT": 0}, "tle": {"line1": "1 29522U 06050A   25355.46856501  .00000130  00000+0  89762-4 0  9995", "line2": "2 29522  98.7390   0.6759 0009770 198.6011 161.4806 14.14923282987280"}}, "geometry": {"type": "Point", "coordinates": [-131.33771250882148, 78.26290686684162]}}, {"type": "Feature", "properties": {"norad_id": 32958, "name": "FENGYUN 3A", "group": "weather", "lat": -39.56430948360279, "lon": -57.718519477131196, "alt_km": 829.1008177885633, "timestamp": "2025-12-21T16:47:54.371486+00:00", "meta": {"OBJECT_NAME": "FENGYUN 3A", "OBJECT_ID": "2008-026A", "EPOCH": "2025-12-21T08:31:42.761856", "MEAN_MOTION": 14.19517074, "ECCENTRICITY": 0.0007655, "INCLINATION": 98.6709, "RA_OF_ASC_NODE": 294.701, "ARG_OF_PERICENTER": 282.6439, "MEAN_ANOMALY": 77.3881, "EPHEMERIS_TYPE": 0, "CLASSIFICATION_TYPE": "U", "NORAD_CAT_ID": 32958, "ELEMENT_SET_NO": 999, "REV_AT_EPOCH": 91017, "BSTAR": 5.6292e-05, "MEAN_MOTION_DOT": 7.5e-07, "MEAN_MOTION_DDOT": 0}, "tle": {"line1": "1 32958U 08026A   25355.35535604  .00000075  00000+0  56292-4 0  9993", "line2": "2 32958  98.6709 294.7010 0007655 282.6439  77.3881 14.19517074910179"}}, "geometry": {"type": "Point", "coordinates": [-57.718519477131196, -39.56430948360279]}}, {"type": "Feature", "properties": {"norad_id": 35491, "name": "GOES 14", "group": "weather", "lat": 0.740364544597811, "lon": -132.91830589482427, "alt_km": 35833.408625246746, "timestamp": "2025-12-21T16:47:54.371504+00:00", "meta": {"OBJECT_NAME": "GOES 14", "OBJECT_ID": "2009-033A", "EPOCH": "2025-12-21T12:09:15.385248", "MEAN_MOTION": 1.00096928, "ECCENTRICITY": 5.36e-05, "INCLINATION": 1.2252, "RA_OF_ASC_NODE": 85.3172, "ARG_OF_PERICENTER": 184.7328, "MEAN_ANOMALY": 247.3042, "EPHEMERIS_TYPE": 0, "CLASSIFICATION_TYPE": "U", "NORAD_CAT_ID": 35491, "ELEMENT_SET_NO": 999, "REV_AT_EPOCH": 481, "BSTAR": 0, "MEAN_MOTION_DOT": 2.4e-07, "MEAN_MOTION_DDOT": 0}, "tle": {"line1": "1 35491U 09033A   25355.50642807  .00000024  00000+0  00000+0 0  9993", "line2": "2 35491   1.2252  85.3172 0000536 184.7328 247.3042  1.00096928  4819"}}, "geometry": {"type": "Point", "coordinates": [-132.91830589482427, 0.740364544597811]}}, {"type": "Feature", "properties": {"norad_id": 35951, "name": "DMSP 5D-3 F18 (USA 210)", "group": "weather", "lat": -39.01152103183502, "lon": -20.663900233212964, "alt_km": 847.7818676341403, "timestamp": "2025-12-21T16:47:54.371519+00:00", "meta": {"OBJECT_NAME": "DMSP 5D-3 F18 (USA 210)", "OBJECT_ID": "2009-057A", "EPOCH": "2025-12-21T11:53:34.547136", "MEAN_MOTION": 14.14774701, "ECCENTRICITY": 0.0011833, "INCLINATION": 98.8844, "RA_OF_ASC_NODE": 331.8529, "ARG_OF_PERICENTER": 39.6746, "MEAN_ANOMALY": 320.529, "EPHEMERIS_TYPE": 0, "CLASSIFICATION_TYPE": "U", "NORAD_CAT_ID": 35951, "ELEMENT_SET_NO": 999, "REV_AT_EPOCH": 83446, "BSTAR": 0.00014744, "MEAN_MOTION_DOT": 2.4e-06, "MEAN_MOTION_DDOT": 0}, "tle": {"line1": "1 35951U 09057A   25355.49553874  .00000240  00000+0  14744-3 0  9997", "line2": "2 35951  98.8844 331.8529 0011833  39.6746 320.5290 14.14774701834460"}}, "geometry": {"type": "Point", "coordinates": [-20.663900233212964, -39.01152103183502]}}, {"type": "Feature", "properties": {"norad_id": 36411, "name": "EWS-G2 (GOES 15)", "group": "weather", "lat": -0.5429717834818648, "lon": 43.88941391568261, "alt_km": 35804.027676119724, "timestamp": "2025-12-21T16:47:54.371535+00:00", "meta": {"OBJECT_NAME": "EWS-G2 (GOES 15)", "OBJECT_ID": "2010-008A", "EPOCH": "2025-12-21T11:46:40.909728", "MEAN_MOTION": 1.00270942, "ECCENTRICITY": 0.0005454, "INCLINATION": 0.834, "RA_OF_ASC_NODE": 86.0823, "ARG_OF_PERICENTER": 177.9274, "MEAN_ANOMALY": 64.3316, "EPHEMERIS_TYPE": 0, "CLASSIFICATION_TYPE": "U", "NORAD_CAT_ID": 36411, "ELEMENT_SET_NO": 999, "REV_AT_EPOCH": 5785, "BSTAR": 0, "MEAN_MOTION_DOT": 6e-07, "MEAN_MOTION_DDOT": 0}, "tle": {"line1": "1 36411U 10008A   25355.49075127  .00000060  00000+0  00000+0 0  9993", "line2": "2 36411   0.8340  86.0823 0005454 177.9274  64.3316  1.00270942 57857"}}, "geometry": {"type": "Point", "coordinates": [43.88941391568261, -0.5429717834818648]}}, {"type": "Feature", "properties": {"norad_id": 36744, "name": "COMS 1", "group": "weather", "lat": 2.3841067864940872, "lon": 110.58895817337937, "alt_km": 35788.84475969738, "timestamp": "2025-12-21T16:47:54.371550+00:00", "meta": {"OBJECT_NAME": "COMS 1", "OBJECT_ID": "2010-032A", "EPOCH": "2025-12-21T12:44:43.470816", "MEAN_MOTION": 1.00271755, "ECCENTRICITY": 7.24e-05, "INCLINATION": 4.3602, "RA_OF_ASC_NODE": 77.8993, "ARG_OF_PERICENTER": 204.235, "MEAN_ANOMALY": 127.5743, "EPHEMERIS_TYPE": 0, "CLASSIFICATION_TYPE": "U", "NORAD_CAT_ID": 36744, "ELEMENT_SET_NO": 999, "REV_AT_EPOCH": 4930, "BSTAR": 0, "MEAN_MOTION_DOT": -3.25e-06, "MEAN_MOTION_DDOT": 0}, "tle": {"line1": "1 36744U 10032A   25355.53105869 -.00000325  00000+0  00000+0 0  9996", "line2": "2 36744   4.3602  77.8993 0000724 204.2350 127.5743  1.00271755 49306"}}, "geometry": {"type": "Point", "coordinates": [110.58895817337937, 2.3841067864940872]}}, {"type": "Feature", "properties": {"norad_id": 37214, "name": "FENGYUN 3B", "group": "weather", "lat": -71.97519808722161, "lon": 64.84947686717857, "alt_km": 839.5159892905194, "timestamp": "2025-12-21T16:47:54.371565+00:00", "meta": {"OBJECT_NAME": "FENGYUN 3B", "OBJECT_ID": "2010-059A", "EPOCH": "2025-12-21T12:41:57.099840", "MEAN_MOTION": 14.14792543, "ECCENTRICITY": 0.0021652, "INCLINATION": 98.9897, "RA_OF_ASC_NODE": 35.5679, "ARG_OF_PERICENTER": 332.7957, "MEAN_ANOMALY": 163.6511, "EPHEMERIS_TYPE": 0, "CLASSIFICATION_TYPE": "U", "NORAD_CAT_ID": 37214, "ELEMENT_SET_NO": 999, "REV_AT_EPOCH": 78230, "BSTAR": 9.751e-05, "MEAN_MOTION_DOT": 1.43e-06, "MEAN_MOTION_DDOT": 0}, "tle": {"line1": "1 37214U 10059A   25355.52913310  .00000143  00000+0  97510-4 0  9999", "line2": "2 37214  98.9897  35.5679 0021652 332.7957 163.6511 14.14792543782309"}}, "geometry": {"type": "Point", "coordinates": [64.84947686717857, -71.97519808722161]}}, {"type": "Feature", "properties": {"norad_id": 37849, "name": "SUOMI NPP", "group": "weather", "lat": -77.65739403086899, "lon": -22.118477046045854, "alt_km": 836.0237208387671, "timestamp": "2025-12-21T16:47:54.371600+00:00", "meta": {"OBJECT_NAME": "SUOMI NPP", "OBJECT_ID": "2011-061A", "EPOCH": "2025-12-17T23:31:21.474624", "MEAN_MOTION": 14.19515682, "ECCENTRICITY": 0.00023932, "INCLINATION": 98.7779, "RA_OF_ASC_NODE": 289.2746, "ARG_OF_PERICENTER": 111.1248, "MEAN_ANOMALY": 249.0184, "EPHEMERIS_TYPE": 0, "CLASSIFICATION_TYPE": "U", "NORAD_CAT_ID": 37849, "ELEMENT_SET_NO": 999, "REV_AT_EPOCH": 73273, "BSTAR": 4.8615036e-05, "MEAN_MOTION_DOT": 5.8e-07, "MEAN_MOTION_DDOT": 0}, "tle": {"line1": "1 37849U 11061A   25351.98010966  .00000058  00000+0  48615-4 0  9995", "line2": "2 37849  98.7779 289.2746 0002393 111.1248 249.0184 14.19515682732735"}}, "geometry": {"type": "Point", "coordinates": [-22.118477046045854, -77.65739403086899]}}]}